[{"OBJECT_NAME":"STARLINK-33679","OBJECT_ID":"2025-070A","EPOCH":"2026-03-17T17:38:39.305760","MEAN_MOTION":15.27602669,"ECCENTRICITY":0.00016548,"INCLINATION":42.9968,"RA_OF_ASC_NODE":214.6731,"ARG_OF_PERICENTER":283.4322,"MEAN_ANOMALY":76.6345,"EPHEMERIS_TYPE":0,"CLASSIFICATION_TYPE":"U","NORAD_CAT_ID":63460,"ELEMENT_SET_NO":999,"REV_AT_EPOCH":5420,"BSTAR":0.00050303693,"MEAN_MOTION_DOT":0.00013616,"MEAN_MOTION_DDOT":0},{"OBJECT_NAME":"STARLINK-33706","OBJECT_ID":"2025-070B","EPOCH":"2026-03-17T17:44:12.358752","MEAN_MOTION":15.27576678,"ECCENTRICITY":0.00014679,"INCLINATION":42.9976,"RA_OF_ASC_NODE":214.6725,"ARG_OF_PERICENTER":277.148,"MEAN_ANOMALY":82.9205,"EPHEMERIS_TYPE":0,"CLASSIFICATION_TYPE":"U","NORAD_CAT_ID":63461,"ELEMENT_SET_NO":999,"REV_AT_EPOCH":5420,"BSTAR":0.0011026785,"MEAN_MOTION_DOT":0.00030203,"MEAN_MOTION_DDOT":0},{"OBJECT_NAME":"STARLINK-33691","OBJECT_ID":"2025-070C","EPOCH":"2026-03-17T18:04:20.356032","MEAN_MOTION":15.27596064,"ECCENTRICITY":0.00018693,"INCLINATION":43.0027,"RA_OF_ASC_NODE":213.9161,"ARG_OF_PERICENTER":272.2526,"MEAN_ANOMALY":87.8112,"EPHEMERIS_TYPE":0,"CLASSIFICATION_TYPE":"U","NORAD_CAT_ID":63462,"ELEMENT_SET_NO":999,"REV_AT_EPOCH":5416,"BSTAR":0.00067843742,"MEAN_MOTION_DOT":0.00018463,"MEAN_MOTION_DDOT":0},{"OBJECT_NAME":"STARLINK-33696","OBJECT_ID":"2025-070D","EPOCH":"2026-03-17T18:41:21.890112","MEAN_MOTION":15.27576658,"ECCENTRICITY":0.00020428,"INCLINATION":43.0018,"RA_OF_ASC_NODE":214.113,"ARG_OF_PERICENTER":276.5777,"MEAN_ANOMALY":83.4842,"EPHEMERIS_TYPE":0,"CLASSIFICATION_TYPE":"U","NORAD_CAT_ID":63463,"ELEMENT_SET_NO":999,"REV_AT_EPOCH":5421,"BSTAR":0.00097056092,"MEAN_MOTION_DOT":0.0002654,"MEAN_MOTION_DDOT":0},{"OBJECT_NAME":"STARLINK-33701","OBJECT_ID":"2025-070E","EPOCH":"2026-03-17T17:49:45.004800","MEAN_MOTION":15.27596944,"ECCENTRICITY":0.00015643,"INCLINATION":42.9999,"RA_OF_ASC_NODE":214.7014,"ARG_OF_PERICENTER":265.3352,"MEAN_ANOMALY":94.7321,"EPHEMERIS_TYPE":0,"CLASSIFICATION_TYPE":"U","NORAD_CAT_ID":63464,"ELEMENT_SET_NO":999,"REV_AT_EPOCH":5420,"BSTAR":0.00052424013,"MEAN_MOTION_DOT":0.00014199,"MEAN_MOTION_DDOT":0},{"OBJECT_NAME":"STARLINK-33685","OBJECT_ID":"2025-070F","EPOCH":"2026-03-17T15:49:41.571552","MEAN_MOTION":15.27593969,"ECCENTRICITY":0.00014298,"INCLINATION":43,"RA_OF_ASC_NODE":214.936,"ARG_OF_PERICENTER":269.4647,"MEAN_ANOMALY":90.604,"EPHEMERIS_TYPE":0,"CLASSIFICATION_TYPE":"U","NORAD_CAT_ID":63465,"ELEMENT_SET_NO":999,"REV_AT_EPOCH":5419,"BSTAR":0.00071287064,"MEAN_MOTION_DOT":0.00019415,"MEAN_MOTION_DDOT":0},{"OBJECT_NAME":"STARLINK-33654","OBJECT_ID":"2025-070G","EPOCH":"2026-03-17T20:17:21.852384","MEAN_MOTION":15.27580349,"ECCENTRICITY":0.0001424,"INCLINATION":43.0007,"RA_OF_ASC_NODE":213.7497,"ARG_OF_PERICENTER":265.4414,"MEAN_ANOMALY":94.6275,"EPHEMERIS_TYPE":0,"CLASSIFICATION_TYPE":"U","NORAD_CAT_ID":63466,"ELEMENT_SET_NO":999,"REV_AT_EPOCH":5422,"BSTAR":0.00068649361,"MEAN_MOTION_DOT":0.00018677,"MEAN_MOTION_DDOT":0},{"OBJECT_NAME":"STARLINK-33697","OBJECT_ID":"2025-070H","EPOCH":"2026-03-17T20:21:03.721536","MEAN_MOTION":15.27586606,"ECCENTRICITY":0.00022347,"INCLINATION":43.0019,"RA_OF_ASC_NODE":213.7835,"ARG_OF_PERICENTER":270.45,"MEAN_ANOMALY":89.6095,"EPHEMERIS_TYPE":0,"CLASSIFICATION_TYPE":"U","NORAD_CAT_ID":63467,"ELEMENT_SET_NO":999,"REV_AT_EPOCH":5422,"BSTAR":0.00068509079,"MEAN_MOTION_DOT":0.00018642,"MEAN_MOTION_DDOT":0},{"OBJECT_NAME":"STARLINK-33720","OBJECT_ID":"2025-070J","EPOCH":"2026-03-17T15:40:26.448096","MEAN_MOTION":15.27581522,"ECCENTRICITY":0.00011301,"INCLINATION":43.0009,"RA_OF_ASC_NODE":214.887,"ARG_OF_PERICENTER":257.0459,"MEAN_ANOMALY":103.0267,"EPHEMERIS_TYPE":0,"CLASSIFICATION_TYPE":"U","NORAD_CAT_ID":63468,"ELEMENT_SET_NO":999,"REV_AT_EPOCH":5419,"BSTAR":0.00074938743,"MEAN_MOTION_DOT":0.00020417,"MEAN_MOTION_DDOT":0},{"OBJECT_NAME":"STARLINK-33587","OBJECT_ID":"2025-070K","EPOCH":"2026-03-17T18:26:34.818720","MEAN_MOTION":15.27562016,"ECCENTRICITY":8.087e-5,"INCLINATION":43.0025,"RA_OF_ASC_NODE":214.0333,"ARG_OF_PERICENTER":236.3465,"MEAN_ANOMALY":123.731,"EPHEMERIS_TYPE":0,"CLASSIFICATION_TYPE":"U","NORAD_CAT_ID":63469,"ELEMENT_SET_NO":999,"REV_AT_EPOCH":5421,"BSTAR":0.00091674697,"MEAN_MOTION_DOT":0.00025036,"MEAN_MOTION_DDOT":0},{"OBJECT_NAME":"STARLINK-33637","OBJECT_ID":"2025-070L","EPOCH":"2026-03-17T17:55:18.150240","MEAN_MOTION":15.27598997,"ECCENTRICITY":0.00013963,"INCLINATION":42.9996,"RA_OF_ASC_NODE":214.7283,"ARG_OF_PERICENTER":266.3498,"MEAN_ANOMALY":93.7194,"EPHEMERIS_TYPE":0,"CLASSIFICATION_TYPE":"U","NORAD_CAT_ID":63470,"ELEMENT_SET_NO":999,"REV_AT_EPOCH":5420,"BSTAR":0.00050753419,"MEAN_MOTION_DOT":0.00013738,"MEAN_MOTION_DDOT":0},{"OBJECT_NAME":"STARLINK-33744","OBJECT_ID":"2025-070M","EPOCH":"2026-03-17T17:33:05.804352","MEAN_MOTION":15.27592625,"ECCENTRICITY":0.00015377,"INCLINATION":42.9984,"RA_OF_ASC_NODE":214.6099,"ARG_OF_PERICENTER":264.8058,"MEAN_ANOMALY":95.2618,"EPHEMERIS_TYPE":0,"CLASSIFICATION_TYPE":"U","NORAD_CAT_ID":63471,"ELEMENT_SET_NO":999,"REV_AT_EPOCH":5420,"BSTAR":0.00062790284,"MEAN_MOTION_DOT":0.00017063,"MEAN_MOTION_DDOT":0},{"OBJECT_NAME":"STARLINK-33766","OBJECT_ID":"2025-070N","EPOCH":"2026-03-17T19:20:12.218208","MEAN_MOTION":15.27594739,"ECCENTRICITY":0.00013574,"INCLINATION":42.9989,"RA_OF_ASC_NODE":214.3108,"ARG_OF_PERICENTER":272.0921,"MEAN_ANOMALY":87.9775,"EPHEMERIS_TYPE":0,"CLASSIFICATION_TYPE":"U","NORAD_CAT_ID":63472,"ELEMENT_SET_NO":999,"REV_AT_EPOCH":5421,"BSTAR":0.0004034221,"MEAN_MOTION_DOT":0.00010861,"MEAN_MOTION_DDOT":0},{"OBJECT_NAME":"STARLINK-33765","OBJECT_ID":"2025-070P","EPOCH":"2026-03-17T15:45:59.607360","MEAN_MOTION":15.2757524,"ECCENTRICITY":0.00012744,"INCLINATION":42.9994,"RA_OF_ASC_NODE":214.9121,"ARG_OF_PERICENTER":264.2787,"MEAN_ANOMALY":95.792,"EPHEMERIS_TYPE":0,"CLASSIFICATION_TYPE":"U","NORAD_CAT_ID":63473,"ELEMENT_SET_NO":999,"REV_AT_EPOCH":5419,"BSTAR":0.0008328011,"MEAN_MOTION_DOT":0.00022722,"MEAN_MOTION_DDOT":0},{"OBJECT_NAME":"STARLINK-33735","OBJECT_ID":"2025-070Q","EPOCH":"2026-03-17T10:37:36.808896","MEAN_MOTION":15.27597151,"ECCENTRICITY":0.00014025,"INCLINATION":42.9987,"RA_OF_ASC_NODE":215.8795,"ARG_OF_PERICENTER":233.8062,"MEAN_ANOMALY":126.266,"EPHEMERIS_TYPE":0,"CLASSIFICATION_TYPE":"U","NORAD_CAT_ID":63474,"ELEMENT_SET_NO":999,"REV_AT_EPOCH":5416,"BSTAR":0.0005608643,"MEAN_MOTION_DOT":0.00015212,"MEAN_MOTION_DDOT":0},{"OBJECT_NAME":"STARLINK-33731","OBJECT_ID":"2025-070R","EPOCH":"2026-03-17T17:51:35.976960","MEAN_MOTION":15.27589907,"ECCENTRICITY":0.00014701,"INCLINATION":42.9985,"RA_OF_ASC_NODE":214.7088,"ARG_OF_PERICENTER":259.642,"MEAN_ANOMALY":100.4266,"EPHEMERIS_TYPE":0,"CLASSIFICATION_TYPE":"U","NORAD_CAT_ID":63475,"ELEMENT_SET_NO":999,"REV_AT_EPOCH":5420,"BSTAR":0.00066101367,"MEAN_MOTION_DOT":0.00017978,"MEAN_MOTION_DDOT":0}]
