STARLINK-33679          
1 63460U 25070A   26076.73517715  .00013616  00000+0  50304-3 0  9991
2 63460  42.9968 214.6731 0001654 283.4322  76.6345 15.27602669 54209
STARLINK-33706          
1 63461U 25070B   26076.73903193  .00030203  00000+0  11027-2 0  9990
2 63461  42.9976 214.6725 0001467 277.1480  82.9205 15.27576678 54204
STARLINK-33691          
1 63462U 25070C   26076.75301338  .00018463  00000+0  67844-3 0  9999
2 63462  43.0027 213.9161 0001869 272.2526  87.8112 15.27596064 54160
STARLINK-33696          
1 63463U 25070D   26076.77872558  .00026540  00000+0  97056-3 0  9992
2 63463  43.0018 214.1130 0002042 276.5777  83.4842 15.27576658 54214
STARLINK-33701          
1 63464U 25070E   26076.74288200  .00014199  00000+0  52424-3 0  9992
2 63464  42.9999 214.7014 0001564 265.3352  94.7321 15.27596944 54207
STARLINK-33685          
1 63465U 25070F   26076.65950893  .00019415  00000+0  71287-3 0  9991
2 63465  43.0000 214.9360 0001429 269.4647  90.6040 15.27593969 54196
STARLINK-33654          
1 63466U 25070G   26076.84539181  .00018677  00000+0  68649-3 0  9993
2 63466  43.0007 213.7497 0001424 265.4414  94.6275 15.27580349 54221
STARLINK-33697          
1 63467U 25070H   26076.84795974  .00018642  00000+0  68509-3 0  9995
2 63467  43.0019 213.7835 0002234 270.4500  89.6095 15.27586606 54229
STARLINK-33720          
1 63468U 25070J   26076.65308389  .00020417  00000+0  74939-3 0  9992
2 63468  43.0009 214.8870 0001130 257.0459 103.0267 15.27581522 54198
STARLINK-33587          
1 63469U 25070K   26076.76845855  .00025036  00000+0  91675-3 0  9997
2 63469  43.0025 214.0333 0000808 236.3465 123.7310 15.27562016 54219
STARLINK-33637          
1 63470U 25070L   26076.74673785  .00013738  00000+0  50753-3 0  9996
2 63470  42.9996 214.7283 0001396 266.3498  93.7194 15.27598997 54201
STARLINK-33744          
1 63471U 25070M   26076.73131718  .00017063  00000+0  62790-3 0  9990
2 63471  42.9984 214.6099 0001537 264.8058  95.2618 15.27592625 54205
STARLINK-33766          
1 63472U 25070N   26076.80569697  .00010861  00000+0  40342-3 0  9998
2 63472  42.9989 214.3108 0001357 272.0921  87.9775 15.27594739 54210
STARLINK-33765          
1 63473U 25070P   26076.65693990  .00022722  00000+0  83280-3 0  9993
2 63473  42.9994 214.9121 0001274 264.2787  95.7920 15.27575240 54191
STARLINK-33735          
1 63474U 25070Q   26076.44278714  .00015212  00000+0  56086-3 0  9994
2 63474  42.9987 215.8795 0001402 233.8062 126.2660 15.27597151 54165
STARLINK-33731          
1 63475U 25070R   26076.74416640  .00017978  00000+0  66101-3 0  9990
2 63475  42.9985 214.7088 0001470 259.6420 100.4266 15.27589907 54207
